start=new Date('2022-06-20T00:00:00.000Z').valueOf();
sats=[{"PERIOD":"95.593","DECAY_DATE":null,"INCLINATION":"53.0550","BSTAR":"0.00003692900000","REF_FRAME":"TEME","GP_ID":"206448020","MEAN_ANOMALY":"301.7056","MEAN_MOTION_DOT":"0.00000268","CENTER_NAME":"EARTH","TLE_LINE2":"2 48655  53.0550 101.8309 0001850  58.4114 301.7056 15.06392674 58892","EPHEMERIS_TYPE":"0","RCS_SIZE":"LARGE","SITE":"AFETR","MEAN_MOTION":"15.06392674","SEMIMAJOR_AXIS":"6925.371","OBJECT_ID":"2021-044T","NORAD_CAT_ID":"48655","APOAPSIS":"548.517","PERIAPSIS":"545.955","OBJECT_TYPE":"PAYLOAD","EPOCH":"2022-06-19T19:42:33.585984","REV_AT_EPOCH":"5889","CLASSIFICATION_TYPE":"U","MEAN_MOTION_DDOT":"0.0000000000000","ECCENTRICITY":"0.00018500","LAUNCH_DATE":"2021-05-26","OBJECT_NAME":"STARLINK-2657","TIME_SYSTEM":"UTC","COUNTRY_CODE":"US","RA_OF_ASC_NODE":"101.8309","ELEMENT_SET_NO":"999","FILE":"3497669","ARG_OF_PERICENTER":"58.4114","TLE_LINE1":"1 48655U 21044T   22170.82122206  .00000268  00000-0  36929-4 0  9993","MEAN_ELEMENT_THEORY":"SGP4"},{"RA_OF_ASC_NODE":"103.0355","ELEMENT_SET_NO":"999","FILE":"3497010","TLE_LINE1":"1 48656U 21044U   22170.55215127  .00000247  00000-0  35452-4 0  9996","ARG_OF_PERICENTER":"59.0141","MEAN_ELEMENT_THEORY":"SGP4","MEAN_MOTION_DDOT":"0.0000000000000","CLASSIFICATION_TYPE":"U","LAUNCH_DATE":"2021-05-26","ECCENTRICITY":"0.00013150","TIME_SYSTEM":"UTC","OBJECT_NAME":"STARLINK-2701","COUNTRY_CODE":"US","MEAN_MOTION":"15.06388542","SEMIMAJOR_AXIS":"6925.384","OBJECT_ID":"2021-044U","SITE":"AFETR","PERIAPSIS":"546.338","APOAPSIS":"548.159","NORAD_CAT_ID":"48656","EPOCH":"2022-06-19T13:15:05.869728","OBJECT_TYPE":"PAYLOAD","REV_AT_EPOCH":"5885","DECAY_DATE":null,"PERIOD":"95.593","INCLINATION":"53.0557","BSTAR":"0.00003545200000","GP_ID":"206415966","REF_FRAME":"TEME","TLE_LINE2":"2 48656  53.0557 103.0355 0001315  59.0141 301.0977 15.06388542 58858","CENTER_NAME":"EARTH","RCS_SIZE":"LARGE","EPHEMERIS_TYPE":"0","MEAN_MOTION_DOT":"0.00000247","MEAN_ANOMALY":"301.0977"},{"RA_OF_ASC_NODE":"103.0437","ELEMENT_SET_NO":"999","TLE_LINE1":"1 48657U 21044V   22170.54845672  .00000608  00000-0  59673-4 0  9992","ARG_OF_PERICENTER":"67.4264","FILE":"3497010","MEAN_ELEMENT_THEORY":"SGP4","CLASSIFICATION_TYPE":"U","MEAN_MOTION_DDOT":"0.0000000000000","LAUNCH_DATE":"2021-05-26","ECCENTRICITY":"0.00015660","OBJECT_NAME":"STARLINK-2734","TIME_SYSTEM":"UTC","COUNTRY_CODE":"US","SITE":"AFETR","SEMIMAJOR_AXIS":"6925.334","OBJECT_ID":"2021-044V","MEAN_MOTION":"15.06404771","APOAPSIS":"548.283","NORAD_CAT_ID":"48657","PERIAPSIS":"546.114","OBJECT_TYPE":"PAYLOAD","EPOCH":"2022-06-19T13:09:46.660608","REV_AT_EPOCH":"5885","PERIOD":"95.592","DECAY_DATE":null,"INCLINATION":"53.0547","GP_ID":"206416216","REF_FRAME":"TEME","BSTAR":"0.00005967300000","MEAN_MOTION_DOT":"0.00000608","MEAN_ANOMALY":"292.6890","RCS_SIZE":"LARGE","EPHEMERIS_TYPE":"0","CENTER_NAME":"EARTH","TLE_LINE2":"2 48657  53.0547 103.0437 0001566  67.4264 292.6890 15.06404771 58858"},{"OBJECT_NAME":"STARLINK-2647","TIME_SYSTEM":"UTC","COUNTRY_CODE":"US","CLASSIFICATION_TYPE":"U","MEAN_MOTION_DDOT":"0.0000000000000","LAUNCH_DATE":"2021-05-26","ECCENTRICITY":"0.00018620","ARG_OF_PERICENTER":"73.3896","TLE_LINE1":"1 48658U 21044W   22170.81016654  .00002686  00000-0  19913-3 0  9993","FILE":"3497669","MEAN_ELEMENT_THEORY":"SGP4","RA_OF_ASC_NODE":"101.8748","ELEMENT_SET_NO":"999","REF_FRAME":"TEME","GP_ID":"206447273","BSTAR":"0.00019913000000","MEAN_ANOMALY":"286.7297","MEAN_MOTION_DOT":"0.00002686","EPHEMERIS_TYPE":"0","RCS_SIZE":"LARGE","TLE_LINE2":"2 48658  53.0561 101.8748 0001862  73.3896 286.7297 15.06400839 58892","CENTER_NAME":"EARTH","PERIOD":"95.592","DECAY_DATE":null,"INCLINATION":"53.0561","EPOCH":"2022-06-19T19:26:38.389056","OBJECT_TYPE":"PAYLOAD","REV_AT_EPOCH":"5889","SITE":"AFETR","SEMIMAJOR_AXIS":"6925.346","OBJECT_ID":"2021-044W","MEAN_MOTION":"15.06400839","NORAD_CAT_ID":"48658","APOAPSIS":"548.500","PERIAPSIS":"545.921"},{"MEAN_ELEMENT_THEORY":"SGP4","ARG_OF_PERICENTER":"60.8264","TLE_LINE1":"1 48659U 21044X   22170.80647818  .00000790  00000-0  71925-4 0  9991","FILE":"3497669","ELEMENT_SET_NO":"999","RA_OF_ASC_NODE":"101.8870","COUNTRY_CODE":"US","TIME_SYSTEM":"UTC","OBJECT_NAME":"STARLINK-2717","LAUNCH_DATE":"2021-05-26","ECCENTRICITY":"0.00014450","MEAN_MOTION_DDOT":"0.0000000000000","CLASSIFICATION_TYPE":"U","REV_AT_EPOCH":"5889","OBJECT_TYPE":"PAYLOAD","EPOCH":"2022-06-19T19:21:19.714752","PERIAPSIS":"546.223","NORAD_CAT_ID":"48659","APOAPSIS":"548.224","SEMIMAJOR_AXIS":"6925.359","OBJECT_ID":"2021-044X","MEAN_MOTION":"15.06396680","SITE":"AFETR","RCS_SIZE":"LARGE","EPHEMERIS_TYPE":"0","TLE_LINE2":"2 48659  53.0554 101.8870 0001445  60.8264 299.2870 15.06396680 58892","CENTER_NAME":"EARTH","MEAN_MOTION_DOT":"0.00000790","MEAN_ANOMALY":"299.2870","REF_FRAME":"TEME","GP_ID":"206447520","BSTAR":"0.00007192500000","INCLINATION":"53.0554","DECAY_DATE":null,"PERIOD":"95.592"},{"OBJECT_NAME":"STARLINK-2688","TIME_SYSTEM":"UTC","COUNTRY_CODE":"US","CLASSIFICATION_TYPE":"U","MEAN_MOTION_DDOT":"0.0000000000000","LAUNCH_DATE":"2021-05-26","ECCENTRICITY":"0.00015330","FILE":"3497010","TLE_LINE1":"1 48660U 21044Y   22170.20567176  .00000839  00000-0  75195-4 0  9992","ARG_OF_PERICENTER":"69.6423","MEAN_ELEMENT_THEORY":"SGP4","RA_OF_ASC_NODE":"104.5875","ELEMENT_SET_NO":"999","BSTAR":"0.00007519500000","REF_FRAME":"TEME","GP_ID":"206416467","MEAN_ANOMALY":"290.4730","MEAN_MOTION_DOT":"0.00000839","TLE_LINE2":"2 48660  53.0548 104.5875 0001533  69.6423 290.4730 15.06395108 58807","CENTER_NAME":"EARTH","EPHEMERIS_TYPE":"0","RCS_SIZE":"LARGE","PERIOD":"95.592","DECAY_DATE":null,"INCLINATION":"53.0548","OBJECT_TYPE":"PAYLOAD","EPOCH":"2022-06-19T04:56:10.040064","REV_AT_EPOCH":"5880","SITE":"AFETR","MEAN_MOTION":"15.06395108","SEMIMAJOR_AXIS":"6925.364","OBJECT_ID":"2021-044Y","NORAD_CAT_ID":"48660","APOAPSIS":"548.290","PERIAPSIS":"546.167"},{"RA_OF_ASC_NODE":"91.5998","ELEMENT_SET_NO":"999","ARG_OF_PERICENTER":"55.5284","TLE_LINE1":"1 48661U 21044Z   22170.87006581  .00003214  00000-0  23455-3 0  9995","FILE":"3497669","MEAN_ELEMENT_THEORY":"SGP4","MEAN_MOTION_DDOT":"0.0000000000000","CLASSIFICATION_TYPE":"U","LAUNCH_DATE":"2021-05-26","ECCENTRICITY":"0.00021830","TIME_SYSTEM":"UTC","OBJECT_NAME":"STARLINK-2708","COUNTRY_CODE":"US","OBJECT_ID":"2021-044Z","SEMIMAJOR_AXIS":"6925.350","MEAN_MOTION":"15.06399601","SITE":"AFETR","PERIAPSIS":"545.703","NORAD_CAT_ID":"48661","APOAPSIS":"548.727","EPOCH":"2022-06-19T20:52:53.685984","OBJECT_TYPE":"PAYLOAD","REV_AT_EPOCH":"5904","DECAY_DATE":null,"PERIOD":"95.592","INCLINATION":"53.0526","GP_ID":"206446522","REF_FRAME":"TEME","BSTAR":"0.00023455000000","RCS_SIZE":"LARGE","EPHEMERIS_TYPE":"0","CENTER_NAME":"EARTH","TLE_LINE2":"2 48661  53.0526  91.5998 0002183  55.5284 304.5911 15.06399601 59043","MEAN_MOTION_DOT":"0.00003214","MEAN_ANOMALY":"304.5911"},{"OBJECT_NAME":"STARLINK-2726","TIME_SYSTEM":"UTC","COUNTRY_CODE":"US","CLASSIFICATION_TYPE":"U","MEAN_MOTION_DDOT":"0.0000000000000","LAUNCH_DATE":"2021-05-26","ECCENTRICITY":"0.00010880","ARG_OF_PERICENTER":"73.9334","TLE_LINE1":"1 48662U 21044AA  22170.80003658  .00006399  00000-0  44854-3 0  9994","FILE":"3497669","MEAN_ELEMENT_THEORY":"SGP4","RA_OF_ASC_NODE":"91.9203","ELEMENT_SET_NO":"999","GP_ID":"206447774","REF_FRAME":"TEME","BSTAR":"0.00044854000000","MEAN_ANOMALY":"286.1775","MEAN_MOTION_DOT":"0.00006399","RCS_SIZE":"LARGE","EPHEMERIS_TYPE":"0","CENTER_NAME":"EARTH","TLE_LINE2":"2 48662  53.0548  91.9203 0001088  73.9334 286.1775 15.06362641 59030","PERIOD":"95.595","DECAY_DATE":null,"INCLINATION":"53.0548","OBJECT_TYPE":"PAYLOAD","EPOCH":"2022-06-19T19:12:03.160512","REV_AT_EPOCH":"5903","SITE":"AFETR","SEMIMAJOR_AXIS":"6925.463","OBJECT_ID":"2021-044AA","MEAN_MOTION":"15.06362641","NORAD_CAT_ID":"48662","APOAPSIS":"548.082","PERIAPSIS":"546.575"},{"ELEMENT_SET_NO":"999","RA_OF_ASC_NODE":"94.6183","MEAN_ELEMENT_THEORY":"SGP4","ARG_OF_PERICENTER":"68.3700","TLE_LINE1":"1 48663U 21044AB  22170.19921740  .00001087  00000-0  91895-4 0  9995","FILE":"3497010","ECCENTRICITY":"0.00016700","LAUNCH_DATE":"2021-05-26","CLASSIFICATION_TYPE":"U","MEAN_MOTION_DDOT":"0.0000000000000","COUNTRY_CODE":"US","OBJECT_NAME":"STARLINK-2667","TIME_SYSTEM":"UTC","NORAD_CAT_ID":"48663","APOAPSIS":"548.387","PERIAPSIS":"546.074","SITE":"AFETR","OBJECT_ID":"2021-044AB","SEMIMAJOR_AXIS":"6925.365","MEAN_MOTION":"15.06394495","REV_AT_EPOCH":"5894","OBJECT_TYPE":"PAYLOAD","EPOCH":"2022-06-19T04:46:52.383360","INCLINATION":"53.0573","PERIOD":"95.592","DECAY_DATE":null,"MEAN_ANOMALY":"291.7467","MEAN_MOTION_DOT":"0.00001087","RCS_SIZE":"LARGE","EPHEMERIS_TYPE":"0","TLE_LINE2":"2 48663  53.0573  94.6183 0001670  68.3700 291.7467 15.06394495 58949","CENTER_NAME":"EARTH","REF_FRAME":"TEME","GP_ID":"206415215","BSTAR":"0.00009189500000"},{"FILE":"3497010","ARG_OF_PERICENTER":"61.1874","TLE_LINE1":"1 48664U 21044AC  22170.19553904  .00003159  00000-0  23101-3 0  9995","MEAN_ELEMENT_THEORY":"SGP4","RA_OF_ASC_NODE":"94.6364","ELEMENT_SET_NO":"999","OBJECT_NAME":"STARLINK-2709","TIME_SYSTEM":"UTC","COUNTRY_CODE":"US","CLASSIFICATION_TYPE":"U","MEAN_MOTION_DDOT":"0.0000000000000","LAUNCH_DATE":"2021-05-26","ECCENTRICITY":"0.00018580","EPOCH":"2022-06-19T04:41:34.573056","OBJECT_TYPE":"PAYLOAD","REV_AT_EPOCH":"5894","SITE":"AFETR","MEAN_MOTION":"15.06379225","SEMIMAJOR_AXIS":"6925.412","OBJECT_ID":"2021-044AC","APOAPSIS":"548.564","NORAD_CAT_ID":"48664","PERIAPSIS":"545.990","BSTAR":"0.00023101000000","REF_FRAME":"TEME","GP_ID":"206415967","MEAN_ANOMALY":"298.9301","MEAN_MOTION_DOT":"0.00003159","TLE_LINE2":"2 48664  53.0547  94.6364 0001858  61.1874 298.9301 15.06379225 58943","CENTER_NAME":"EARTH","EPHEMERIS_TYPE":"0","RCS_SIZE":"LARGE","PERIOD":"95.593","DECAY_DATE":null,"INCLINATION":"53.0547"}];
